0 METEOR 2-17 DEB
1 38656U 88005AZ  13281.04910072  .00000239  00000-0  17854-3 0   518
2 38656 082.5244 040.8622 0018832 192.1274 167.7002 13.90863134243544
0 METEOR 2-17 DEB
1 38656U 88005AZ  13288.02719708  .00000449  00000-0  34603-3 0   521
2 38656 082.5226 035.2347 0021611 176.0140 184.2891 13.90872054244517
0 METEOR 2-17 DEB
1 38656U 88005AZ  13292.99089649  .00000538  00000-0  41721-3 0   535
2 38656 082.5337 031.2447 0025086 159.1456 201.1650 13.90879477245204
